COMS 1                  
1 36744U 10032A   23183.64119955 -.00000334  00000+0  00000+0 0  9996
2 36744   2.0364  88.5487 0001164  17.2774 173.5634  1.00271145 47811
ARABSAT-5A              
1 36745U 10032B   23184.03382847  .00000164  00000+0  00000+0 0  9993
2 36745   0.0736  56.7515 0005213  42.7708 223.9203  1.00273268 47798
ECHOSTAR 15             
1 36792U 10034A   23183.54470587 -.00000269  00000+0  00000+0 0  9998
2 36792   0.0122 333.1402 0002009 128.0204 313.6071  1.00272616 47566
BEIDOU-2 IGSO-1         
1 36828U 10036A   23184.33616206 -.00000074  00000+0  00000+0 0  9992
2 36828  54.2373 172.7457 0037862 192.3916 145.8103  1.00286858 47396
NILESAT 201             
1 36830U 10037A   23184.34395913 -.00000048  00000+0  00000+0 0  9997
2 36830   0.0075 248.2999 0005358 238.9004 270.7306  1.00274031 47468
RASCOM-QAF 1R           
1 36831U 10037B   23184.34441515  .00000027  00000+0  00000+0 0  9994
2 36831   0.0051  23.2492 0005481  81.4041 303.3279  1.00270250 47462
AEHF-1 (USA 214)        
1 36868U 10039A   23184.04493730  .00000029  00000+0  00000+0 0  9991
2 36868   5.4899  81.7908 0007023  32.1726 187.0653  1.00268147 47600
QZS-1 (MICHIBIKI-1)     
1 37158U 10045A   23184.16000007 -.00000136  00000+0  00000+0 0  9995
2 37158  42.7506 128.1601 0765993 270.6735  79.3961  1.00259803 46887
XM-5                    
1 37185U 10053A   23184.36368973 -.00000014  00000+0  00000+0 0  9990
2 37185   0.0305 288.8493 0000254  78.2314 289.7792  1.00271303 46610
BSAT-3B                 
1 37207U 10056B   23184.53151941 -.00000342  00000+0  00000+0 0  9996
2 37207   0.0647 305.2782 0001459  79.8872 197.3254  1.00269937 46441
BEIDOU-2 G4             
1 37210U 10057A   23183.87558007 -.00000102  00000+0  00000+0 0  9995
2 37210   1.0430  57.3268 0003051 135.5156 203.0536  1.00270811 46457
SKYTERRA 1              
1 37218U 10061A   23183.89517545 -.00000110  00000+0  00000+0 0  9991
2 37218   2.9831  43.0404 0001960  21.6185  76.9745  1.00271010 46392
HYLAS 1                 
1 37237U 10065A   23183.92463167  .00000003  00000+0  00000+0 0  9990
2 37237   2.8795  86.0244 0009329 264.5185 309.5569  1.01079704 46177
INTELSAT 17 (IS-17)     
1 37238U 10065B   23184.50191597  .00000007  00000+0  00000+0 0  9995
2 37238   0.0087 234.3959 0002384 231.6937  61.8493  1.00271673 46090
BEIDOU-2 IGSO-2         
1 37256U 10068A   23183.74579652 -.00000187  00000+0  00000+0 0  9995
2 37256  49.5249 285.0806 0028323 203.3826 164.9258  1.00246655 45956
EUTELSAT KA-SAT 9A      
1 37258U 10069A   23183.65672056  .00000074  00000+0  00000+0 0  9994
2 37258   0.0445 326.3423 0004992 140.8840  58.6291  1.00270534 45981
HISPASAT 30W-5          
1 37264U 10070A   23184.41105729 -.00000208  00000+0  00000+0 0  9996
2 37264   0.0335 107.6770 0005905  11.2265 280.2453  1.00271654 45840
KOREASAT 6              
1 37265U 10070B   23184.53557971 -.00000354  00000+0  00000+0 0  9992
2 37265   0.0282 108.8804 0001889   1.7137 119.5213  1.00270876 45856
BEIDOU-2 IGSO-3         
1 37384U 11013A   23184.48063941 -.00000177  00000+0  00000+0 0  9998
2 37384  60.8447  50.5065 0026239 174.5809 334.1619  1.00297273 44841
INTELSAT NEW DAWN       
1 37392U 11016A   23184.02506948  .00000166  00000+0  00000+0 0  9996
2 37392   0.0199  92.9917 0001752   1.1681 228.4461  1.00258655 44685
YAHSAT 1A               
1 37393U 11016B   23184.01716115  .00000112  00000+0  00000+0 0  9996
2 37393   0.0249  35.6580 0003493  85.7302 218.0618  1.00269288 44733
SBIRS GEO-1 (USA 230)   
1 37481U 11019A   23184.50182880  .00000003  00000+0  00000+0 0  9996
2 37481   2.3760  40.4590 0001557  64.9019  62.2482  1.00272040 44516
TELSTAR 14R             
1 37602U 11021A   23184.47620233 -.00000272  00000+0  00000+0 0  9998
2 37602   0.0267  36.7538 0001771  36.5621 316.3595  1.00268785 44968
GSAT-8                  
1 37605U 11022A   23183.49625019  .00000097  00000+0  00000+0 0  9994
2 37605   0.0204  95.0252 0001930 193.4541 225.5249  1.00273808 44402
ST-2                    
1 37606U 11022B   23184.00459167 -.00000201  00000+0  00000+0 0  9990
2 37606   0.0253  45.0900 0001522  72.6293 252.7183  1.00270546 44417
CHINASAT 10 (ZX 10)     
1 37677U 11026A   23184.53299519 -.00000344  00000+0  00000+0 0  9991
2 37677   0.0394 277.8782 0002399 227.4702  78.3244  1.00274247 44133
TIANLIAN 1-02           
1 37737U 11032A   23184.53763296 -.00000045  00000+0  00000+0 0  9991
2 37737   2.5431  72.7797 0087015   4.1204 204.9150  1.00270884 43890
SES-3                   
1 37748U 11035A   23184.49571598 -.00000094  00000+0  00000+0 0  9997
2 37748   0.0222 339.0197 0003216 115.7883 261.9010  1.00271142 43873
KAZSAT-2                
1 37749U 11035B   23184.51929274 -.00000190  00000+0  00000+0 0  9996
2 37749   0.0488 180.2341 0001464  32.3314 342.1785  1.00271001 43742
BEIDOU-2 IGSO-4         
1 37763U 11038A   23183.47989375  .00000059  00000+0  00000+0 0  9990
2 37763  54.5097 175.2825 0111903 228.5606 143.1504  1.00286994 43804
ASTRA 1N                
1 37775U 11041A   23184.34918903  .00000129  00000+0  00000+0 0  9991
2 37775   0.0603  40.3442 0005216  30.5163 355.1476  1.00272708 43576
BSAT-3C (JCSAT-110R)    
1 37776U 11041B   23184.53151942 -.00000343  00000+0  00000+0 0  9994
2 37776   0.0121 353.6429 0000240 161.7286  67.2097  1.00271947 43699
PAKSAT-1R               
1 37779U 11042A   23184.28131338  .00000163  00000+0  00000+0 0  9996
2 37779   0.0098  99.7505 0002644 337.9495 342.5625  1.00268621 43452
CHINASAT 1A (ZX 1A)     
1 37804U 11047A   23184.48064774 -.00000264  00000+0  00000+0 0  9994
2 37804   0.9212  92.5128 0003047 337.4790 343.7426  1.00069736 43246
SES-2                   
1 37809U 11049A   23184.47140826 -.00000188  00000+0  00000+0 0  9998
2 37809   0.0240 320.4030 0002778 142.1029 261.4315  1.00271722 43179
ARABSAT-5C              
1 37810U 11049B   23184.34936336  .00000132  00000+0  00000+0 0  9993
2 37810   0.0489  17.0472 0005663 129.2920 280.5197  1.00271078 43081
EUTELSAT 7 WEST A       
1 37816U 11051A   23184.05049439 -.00000050  00000+0  00000+0 0  9999
2 37816   0.0609 355.5532 0004515 128.6904 167.4560  1.00270959 43138
QUETZSAT 1              
1 37826U 11054A   23184.47341306 -.00000233  00000+0  00000+0 0  9990
2 37826   0.0113  16.9438 0002553  96.6401 261.0673  1.00269358 43270
INTELSAT 18 (IS-18)     
1 37834U 11056A   23184.52376288  .00000061  00000+0  00000+0 0  9992
2 37834   0.0119  40.0046 0002211  65.2130 184.6173  1.00271394 43010
EUTELSAT 16A            
1 37836U 11057A   23184.49197918  .00000112  00000+0  00000+0 0  9999
2 37836   0.0649   6.4713 0005261  96.2485  11.6256  1.00270649 42968
VIASAT-1                
1 37843U 11059A   23184.33253333 -.00000015  00000+0  00000+0 0  9999
2 37843   0.0240  27.3317 0002597  72.5339 185.8371  1.00270779 43449
ASIASAT 7               
1 37933U 11069A   23184.52865818 -.00000326  00000+0  00000+0 0  9993
2 37933   0.0129  20.7018 0001242 125.8792  70.5350  1.00270142 42632
BEIDOU-2 IGSO-5         
1 37948U 11073A   23183.63222344 -.00000150  00000+0  00000+0 0  9991
2 37948  49.6487 284.7437 0093072 219.2980  98.7443  1.00287115 42565
LUCH-5A                 
1 37951U 11074B   23184.53763330 -.00000045  00000+0  00000+0 0  9994
2 37951   5.9851  90.7812 0005715  16.4970 174.6828  1.00267951 42369
NIGCOMSAT 1R            
1 38014U 11077A   23183.49380958  .00000158  00000+0  00000+0 0  9997
2 38014   0.0167 261.5990 0002605  82.9079 156.0239  1.00269229 42195
FENGYUN 2F              
1 38049U 12002A   23184.53308764 -.00000353  00000+0  00000+0 0  9993
2 38049   4.7269  76.5361 0004429  81.5794  67.1307  1.00265181 42065
WGS F4 (USA 233)        
1 38070U 12003A   23184.07628154 -.00000205  00000+0  00000+0 0  9991
2 38070   0.0049 100.8496 0000534  29.8908 265.9769  1.00270072 41894
SES-4                   
1 38087U 12007A   23184.41245194 -.00000160  00000+0  00000+0 0  9990
2 38087   0.0183  72.2048 0002342  31.5471 303.9026  1.00270850 41668
BEIDOU-2 G5             
1 38091U 12008A   23184.01160705  .00000066  00000+0  00000+0 0  9990
2 38091   1.5644  67.1564 0001886 292.5674 343.9327  1.00274474 41645
MUOS-1                  
1 38093U 12009A   23184.49751750 -.00000121  00000+0  00000+0 0  9994
2 38093   3.4490  40.3338 0057386   3.3212 316.7038  1.00271523 41639
INTELSAT 22 (IS-22)     
1 38098U 12011A   23184.43140161 -.00000050  00000+0  00000+0 0  9995
2 38098   0.0439  70.7673 0002567  52.0804  25.7474  1.00270186 41228
APSTAR 7                
1 38107U 12013A   23184.50392076 -.00000093  00000+0  00000+0 0  9997
2 38107   0.0267  93.5034 0002574  12.1923  73.4877  1.00270864 41342
YAHSAT 1B               
1 38245U 12016A   23184.49825505  .00000135  00000+0  00000+0 0  9995
2 38245   0.0180  40.8853 0003135  58.8586  48.4811  1.00269214 41098
AEHF-2 (USA 235)        
1 38254U 12019A   23183.39841025 -.00000150  00000+0  00000+0 0  9999
2 38254   4.1677  62.1650 0002136  41.2772 225.9062  1.00269764 40830
JCSAT-13                
1 38331U 12023A   23184.54134875 -.00000348  00000+0  00000+0 0  9995
2 38331   0.0056 115.1079 0002698   2.0793 123.0060  1.00270094 40741
VINASAT-2               
1 38332U 12023B   23184.54428838 -.00000321  00000+0  00000+0 0  9992
2 38332   0.0172  43.8147 0002598  59.3494 145.9315  1.00271195 40790
NIMIQ 6                 
1 38342U 12026A   23183.53886582 -.00000161  00000+0  00000+0 0  9990
2 38342   0.0136  11.7396 0002871  78.5371 292.9139  1.00270174 40762
CHINASAT 2A (ZX 2A)     
1 38352U 12028A   23184.00659646 -.00000282  00000+0  00000+0 0  9999
2 38352   0.0472 216.7578 0001502 155.5498   9.0714  1.00268296 40815
INTELSAT 19 (IS-19)     
1 38356U 12030A   23184.53682552 -.00000049  00000+0  00000+0 0  9997
2 38356   0.0115  48.8277 0003254  55.8512 175.8724  1.00271004 40687
